CSS (TIANHE)            
1 48274U 21035A   26187.30505103  .00013102  00000+0  17388-3 0  9993
2 48274  41.4676 205.7143 0002935 272.6042  87.4460 15.58006739296155
